CCSDS_OMM_VERS = 2.0
CREATION_DATE  = 
ORIGINATOR     = 

OBJECT_NAME    = COSMOS 2242
OBJECT_ID      = 1993-024A
CENTER_NAME    = EARTH
REF_FRAME      = TEME
TIME_SYSTEM    = UTC
MEAN_ELEMENT_THEORY = SGP/SGP4

EPOCH          = 2026-03-26T10:01:49.539936
MEAN_MOTION    = 14.96617979
ECCENTRICITY   = .0014972
INCLINATION    = 82.5160
RA_OF_ASC_NODE = 250.7107
ARG_OF_PERICENTER = 247.1251
MEAN_ANOMALY   = 112.8391

EPHEMERIS_TYPE = 0
CLASSIFICATION_TYPE = U
NORAD_CAT_ID   = 22626
ELEMENT_SET_NO = 999
REV_AT_EPOCH   = 78289
BSTAR          = .17814E-3
MEAN_MOTION_DOT = .2059E-4
MEAN_MOTION_DDOT = 0

CCSDS_OMM_VERS = 2.0
CREATION_DATE  = 
ORIGINATOR     = 

OBJECT_NAME    = SL-16 R/B
OBJECT_ID      = 1993-059B
CENTER_NAME    = EARTH
REF_FRAME      = TEME
TIME_SYSTEM    = UTC
MEAN_ELEMENT_THEORY = SGP/SGP4

EPOCH          = 2026-03-26T09:59:35.695104
MEAN_MOTION    = 14.17235394
ECCENTRICITY   = .0017538
INCLINATION    = 70.9924
RA_OF_ASC_NODE = 335.8559
ARG_OF_PERICENTER = 192.3326
MEAN_ANOMALY   = 167.7371

EPHEMERIS_TYPE = 0
CLASSIFICATION_TYPE = U
NORAD_CAT_ID   = 22803
ELEMENT_SET_NO = 999
REV_AT_EPOCH   = 68190
BSTAR          = -.32064E-4
MEAN_MOTION_DOT = -.113E-5
MEAN_MOTION_DDOT = 0

CCSDS_OMM_VERS = 2.0
CREATION_DATE  = 
ORIGINATOR     = 

OBJECT_NAME    = ARIANE 40 R/B
OBJECT_ID      = 1993-061H
CENTER_NAME    = EARTH
REF_FRAME      = TEME
TIME_SYSTEM    = UTC
MEAN_ELEMENT_THEORY = SGP/SGP4

EPOCH          = 2026-03-26T02:36:31.705056
MEAN_MOTION    = 14.32869473
ECCENTRICITY   = .00098652
INCLINATION    = 98.4886
RA_OF_ASC_NODE = 153.6701
ARG_OF_PERICENTER = 231.0065
MEAN_ANOMALY   = 129.0241

EPHEMERIS_TYPE = 0
CLASSIFICATION_TYPE = U
NORAD_CAT_ID   = 22830
ELEMENT_SET_NO = 999
REV_AT_EPOCH   = 69645
BSTAR          = .94598959E-4
MEAN_MOTION_DOT = .215E-5
MEAN_MOTION_DDOT = 0

CCSDS_OMM_VERS = 2.0
CREATION_DATE  = 
ORIGINATOR     = 

OBJECT_NAME    = COSMOS 2278
OBJECT_ID      = 1994-023A
CENTER_NAME    = EARTH
REF_FRAME      = TEME
TIME_SYSTEM    = UTC
MEAN_ELEMENT_THEORY = SGP/SGP4

EPOCH          = 2026-03-26T10:19:05.819808
MEAN_MOTION    = 14.14376373
ECCENTRICITY   = .0009067
INCLINATION    = 71.0524
RA_OF_ASC_NODE = 140.0771
ARG_OF_PERICENTER = 346.7055
MEAN_ANOMALY   = 13.3827

EPHEMERIS_TYPE = 0
CLASSIFICATION_TYPE = U
NORAD_CAT_ID   = 23087
ELEMENT_SET_NO = 999
REV_AT_EPOCH   = 64717
BSTAR          = -.10583E-3
MEAN_MOTION_DOT = -.25E-5
MEAN_MOTION_DDOT = 0

CCSDS_OMM_VERS = 2.0
CREATION_DATE  = 
ORIGINATOR     = 

OBJECT_NAME    = SL-16 R/B
OBJECT_ID      = 1994-023B
CENTER_NAME    = EARTH
REF_FRAME      = TEME
TIME_SYSTEM    = UTC
MEAN_ELEMENT_THEORY = SGP/SGP4

EPOCH          = 2026-03-26T07:51:36.996192
MEAN_MOTION    = 14.15013414
ECCENTRICITY   = .0005447
INCLINATION    = 71.0010
RA_OF_ASC_NODE = 35.9436
ARG_OF_PERICENTER = 269.8718
MEAN_ANOMALY   = 90.1780

EPHEMERIS_TYPE = 0
CLASSIFICATION_TYPE = U
NORAD_CAT_ID   = 23088
ELEMENT_SET_NO = 999
REV_AT_EPOCH   = 64844
BSTAR          = .19346E-3
MEAN_MOTION_DOT = .327E-5
MEAN_MOTION_DDOT = 0

CCSDS_OMM_VERS = 2.0
CREATION_DATE  = 
ORIGINATOR     = 

OBJECT_NAME    = SL-16 R/B
OBJECT_ID      = 1994-074B
CENTER_NAME    = EARTH
REF_FRAME      = TEME
TIME_SYSTEM    = UTC
MEAN_ELEMENT_THEORY = SGP/SGP4

EPOCH          = 2026-03-26T08:30:43.508736
MEAN_MOTION    = 14.79426138
ECCENTRICITY   = .0007116
INCLINATION    = 97.7085
RA_OF_ASC_NODE = 115.4960
ARG_OF_PERICENTER = 155.5629
MEAN_ANOMALY   = 215.2884

EPHEMERIS_TYPE = 0
CLASSIFICATION_TYPE = U
NORAD_CAT_ID   = 23343
ELEMENT_SET_NO = 999
REV_AT_EPOCH   = 68971
BSTAR          = .68371E-4
MEAN_MOTION_DOT = .461E-5
MEAN_MOTION_DDOT = 0

CCSDS_OMM_VERS = 2.0
CREATION_DATE  = 
ORIGINATOR     = 

OBJECT_NAME    = SL-16 R/B
OBJECT_ID      = 1994-077B
CENTER_NAME    = EARTH
REF_FRAME      = TEME
TIME_SYSTEM    = UTC
MEAN_ELEMENT_THEORY = SGP/SGP4

EPOCH          = 2026-03-26T02:10:30.568512
MEAN_MOTION    = 14.15569000
ECCENTRICITY   = .00021127
INCLINATION    = 70.9839
RA_OF_ASC_NODE = 317.9867
ARG_OF_PERICENTER = 198.2700
MEAN_ANOMALY   = 161.8347

EPHEMERIS_TYPE = 0
CLASSIFICATION_TYPE = U
NORAD_CAT_ID   = 23405
ELEMENT_SET_NO = 999
REV_AT_EPOCH   = 61855
BSTAR          = .47698336E-4
MEAN_MOTION_DOT = .45E-6
MEAN_MOTION_DDOT = 0

CCSDS_OMM_VERS = 2.0
CREATION_DATE  = 
ORIGINATOR     = 

OBJECT_NAME    = ARIANE 40+ R/B
OBJECT_ID      = 1995-021B
CENTER_NAME    = EARTH
REF_FRAME      = TEME
TIME_SYSTEM    = UTC
MEAN_ELEMENT_THEORY = SGP/SGP4

EPOCH          = 2026-03-26T11:39:45.761184
MEAN_MOTION    = 14.39784191
ECCENTRICITY   = .0007978
INCLINATION    = 98.4468
RA_OF_ASC_NODE = 156.7386
ARG_OF_PERICENTER = 93.1506
MEAN_ANOMALY   = 277.5028

EPHEMERIS_TYPE = 0
CLASSIFICATION_TYPE = U
NORAD_CAT_ID   = 23561
ELEMENT_SET_NO = 999
REV_AT_EPOCH   = 62166
BSTAR          = .10577E-3
MEAN_MOTION_DOT = .288E-5
MEAN_MOTION_DDOT = 0

CCSDS_OMM_VERS = 2.0
CREATION_DATE  = 
ORIGINATOR     = 

OBJECT_NAME    = SL-16 R/B
OBJECT_ID      = 1995-058B
CENTER_NAME    = EARTH
REF_FRAME      = TEME
TIME_SYSTEM    = UTC
MEAN_ELEMENT_THEORY = SGP/SGP4

EPOCH          = 2026-03-26T10:50:30.774912
MEAN_MOTION    = 14.15500005
ECCENTRICITY   = .0010116
INCLINATION    = 71.0209
RA_OF_ASC_NODE = 145.0662
ARG_OF_PERICENTER = 94.7416
MEAN_ANOMALY   = 265.4862

EPHEMERIS_TYPE = 0
CLASSIFICATION_TYPE = U
NORAD_CAT_ID   = 23705
ELEMENT_SET_NO = 999
REV_AT_EPOCH   = 57022
BSTAR          = -.91422E-4
MEAN_MOTION_DOT = -.226E-5
MEAN_MOTION_DDOT = 0

CCSDS_OMM_VERS = 2.0
CREATION_DATE  = 
ORIGINATOR     = 

OBJECT_NAME    = SL-16 R/B
OBJECT_ID      = 1996-051B
CENTER_NAME    = EARTH
REF_FRAME      = TEME
TIME_SYSTEM    = UTC
MEAN_ELEMENT_THEORY = SGP/SGP4

EPOCH          = 2026-03-26T09:13:00.603264
MEAN_MOTION    = 14.12420290
ECCENTRICITY   = .0013699
INCLINATION    = 70.7589
RA_OF_ASC_NODE = 139.9054
ARG_OF_PERICENTER = 121.3103
MEAN_ANOMALY   = 238.9360

EPHEMERIS_TYPE = 0
CLASSIFICATION_TYPE = U
NORAD_CAT_ID   = 24298
ELEMENT_SET_NO = 999
REV_AT_EPOCH   = 52400
BSTAR          = .72571E-4
MEAN_MOTION_DOT = .85E-6
MEAN_MOTION_DDOT = 0

CCSDS_OMM_VERS = 2.0
CREATION_DATE  = 
ORIGINATOR     = 

OBJECT_NAME    = ORBVIEW 2 (SEASTAR)
OBJECT_ID      = 1997-037A
CENTER_NAME    = EARTH
REF_FRAME      = TEME
TIME_SYSTEM    = UTC
MEAN_ELEMENT_THEORY = SGP/SGP4

EPOCH          = 2026-03-26T10:12:10.470816
MEAN_MOTION    = 14.35506288
ECCENTRICITY   = .0002529
INCLINATION    = 98.8597
RA_OF_ASC_NODE = 250.1829
ARG_OF_PERICENTER = 36.5055
MEAN_ANOMALY   = 323.6301

EPHEMERIS_TYPE = 0
CLASSIFICATION_TYPE = U
NORAD_CAT_ID   = 24883
ELEMENT_SET_NO = 999
REV_AT_EPOCH   = 51087
BSTAR          = .11859E-3
MEAN_MOTION_DOT = .294E-5
MEAN_MOTION_DDOT = 0

CCSDS_OMM_VERS = 2.0
CREATION_DATE  = 
ORIGINATOR     = 

OBJECT_NAME    = SL-16 R/B
OBJECT_ID      = 1998-043G
CENTER_NAME    = EARTH
REF_FRAME      = TEME
TIME_SYSTEM    = UTC
MEAN_ELEMENT_THEORY = SGP/SGP4

EPOCH          = 2026-03-26T08:38:48.624000
MEAN_MOTION    = 14.26053525
ECCENTRICITY   = .0009328
INCLINATION    = 98.8282
RA_OF_ASC_NODE = 38.8447
ARG_OF_PERICENTER = 332.1155
MEAN_ANOMALY   = 27.9523

EPHEMERIS_TYPE = 0
CLASSIFICATION_TYPE = U
NORAD_CAT_ID   = 25400
ELEMENT_SET_NO = 999
REV_AT_EPOCH   = 44136
BSTAR          = .51813E-4
MEAN_MOTION_DOT = .78E-6
MEAN_MOTION_DDOT = 0

